<?xml version="1.0" encoding="UTF-8"?>
<kml xmlns="http://www.opengis.net/kml/2.2"><Document>
<name>ComeYa — Puno</name>
<description>Coordenadas: © colaboradores de OpenStreetMap (ODbL). Aproximadas calculadas por numeración de calle.</description>
<Style id="rex"><IconStyle><color>ff2e2ee0</color><scale>1.1</scale><Icon><href>http://maps.google.com/mapfiles/kml/paddle/red-circle.png</href></Icon></IconStyle></Style>
<Style id="rap"><IconStyle><color>ff2e8ef0</color><scale>1.0</scale><Icon><href>http://maps.google.com/mapfiles/kml/paddle/orange-circle.png</href></Icon></IconStyle></Style>
<Style id="emp"><IconStyle><color>ffe07a1e</color><scale>1.1</scale><Icon><href>http://maps.google.com/mapfiles/kml/paddle/blu-circle.png</href></Icon></IconStyle></Style>
<Folder><name>Restaurantes — ubicación exacta (110)</name>
<Placemark><name>Mojsa Restaurante</name><styleUrl>#rex</styleUrl><description><![CDATA[Restaurante turístico<br/>Precisión: Exacta — OpenStreetMap<br/>Dirección: Jr. Lima 635, 2do piso<br/>Teléfono: (051) 363182]]></description><Point><coordinates>-70.0275175,-15.8405096,0</coordinates></Point></Placemark>
<Placemark><name>La Casona Restaurant</name><styleUrl>#rex</styleUrl><description><![CDATA[Restaurante turístico<br/>Precisión: Exacta — OpenStreetMap<br/>Dirección: Jr. Lima 423<br/>Teléfono: 951 608 671]]></description><Point><coordinates>-70.0279486,-15.8391009,0</coordinates></Point></Placemark>
<Placemark><name>Tulipans Restaurant</name><styleUrl>#rex</styleUrl><description><![CDATA[Restaurante turístico<br/>Precisión: Exacta — OpenStreetMap<br/>Dirección: Jr. Lima 394<br/>Teléfono: 931 547 591]]></description><Point><coordinates>-70.0281480,-15.8388064,0</coordinates></Point></Placemark>
<Placemark><name>Tradiciones del Lago</name><styleUrl>#rex</styleUrl><description><![CDATA[Restaurante turístico<br/>Precisión: Exacta — OpenStreetMap<br/>Dirección: Jr. Lima 418<br/>Teléfono: (051) 368140]]></description><Point><coordinates>-70.0280670,-15.8392502,0</coordinates></Point></Placemark>
<Placemark><name>Balcones de Puno</name><styleUrl>#rex</styleUrl><description><![CDATA[Restaurante turístico<br/>Precisión: Exacta — OpenStreetMap<br/>Dirección: Jr. Libertad 354]]></description><Point><coordinates>-70.0278322,-15.8389206,0</coordinates></Point></Placemark>
<Placemark><name>La Estancia Grill</name><styleUrl>#rex</styleUrl><description><![CDATA[Parrilla<br/>Precisión: Exacta — OpenStreetMap<br/>Dirección: Jr. Libertad 137]]></description><Point><coordinates>-70.0262456,-15.8386846,0</coordinates></Point></Placemark>
<Placemark><name>Colors</name><styleUrl>#rex</styleUrl><description><![CDATA[Restaurante turístico<br/>Precisión: Exacta — OpenStreetMap<br/>Dirección: Jr. Lima 342]]></description><Point><coordinates>-70.0281434,-15.8384454,0</coordinates></Point></Placemark>
<Placemark><name>Pacha Restaurante &amp; Draft Bar</name><styleUrl>#rex</styleUrl><description><![CDATA[Restaurante turístico<br/>Precisión: Exacta — OpenStreetMap<br/>Dirección: Jr. Grau 338]]></description><Point><coordinates>-70.0283803,-15.8411110,0</coordinates></Point></Placemark>
<Placemark><name>Lago de Flores</name><styleUrl>#rex</styleUrl><description><![CDATA[Restaurante turístico<br/>Precisión: Exacta — OpenStreetMap<br/>Dirección: Jr. Grau 139<br/>Teléfono: 950 867 043]]></description><Point><coordinates>-70.0277146,-15.8395865,0</coordinates></Point></Placemark>
<Placemark><name>Restaurant Bahamas</name><styleUrl>#rex</styleUrl><description><![CDATA[Restaurante<br/>Precisión: Exacta — OpenStreetMap<br/>Dirección: Jr. Deustua 237<br/>Teléfono: (051) 205675]]></description><Point><coordinates>-70.0267102,-15.8398730,0</coordinates></Point></Placemark>
<Placemark><name>Restaurant Sombreritos</name><styleUrl>#rex</styleUrl><description><![CDATA[Restaurante<br/>Precisión: Exacta — OpenStreetMap<br/>Dirección: Av. Sesquicentenario 1102<br/>Teléfono: (051) 200296]]></description><Point><coordinates>-70.0015418,-15.8235198,0</coordinates></Point></Placemark>
<Placemark><name>Chaquena Restaurantes</name><styleUrl>#rex</styleUrl><description><![CDATA[Restaurante<br/>Precisión: Exacta — OpenStreetMap<br/>Dirección: Jr. Banchero Rossi 110<br/>Teléfono: 929 396 935]]></description><Point><coordinates>-70.0196520,-15.8466112,0</coordinates></Point></Placemark>
<Placemark><name>Victor y Victoria</name><styleUrl>#rex</styleUrl><description><![CDATA[Restaurante<br/>Precisión: Exacta — OpenStreetMap<br/>Dirección: Jr. Arequipa 852<br/>Teléfono: 967 548 213]]></description><Point><coordinates>-70.0266023,-15.8416547,0</coordinates></Point></Placemark>
<Placemark><name>Casa Grill Puno</name><styleUrl>#rex</styleUrl><description><![CDATA[Parrilla<br/>Precisión: Exacta — OpenStreetMap<br/>Dirección: Jr. Moquegua 318<br/>Teléfono: 951 757 970]]></description><Point><coordinates>-70.0263406,-15.8398240,0</coordinates></Point></Placemark>
<Placemark><name>Chicharronería La Red</name><styleUrl>#rex</styleUrl><description><![CDATA[Campestre / recreo<br/>Precisión: Exacta — OpenStreetMap<br/>Dirección: Jr. Manco Cápac 153<br/>Teléfono: 980 678 914]]></description><Point><coordinates>-70.0312491,-15.8385829,0</coordinates></Point></Placemark>
<Placemark><name>Chifa Shanghai</name><styleUrl>#rex</styleUrl><description><![CDATA[Chifa<br/>Precisión: Exacta — OpenStreetMap<br/>Dirección: Jr. Fermín Arbulú 173]]></description><Point><coordinates>-70.0264504,-15.8377336,0</coordinates></Point></Placemark>
<Placemark><name>Parador Chicken</name><styleUrl>#rex</styleUrl><description><![CDATA[Pollería<br/>Precisión: Exacta — OpenStreetMap<br/>Dirección: Jr. Oquendo 154<br/>Teléfono: 944 005 997]]></description><Point><coordinates>-70.0206924,-15.8445074,0</coordinates></Point></Placemark>
<Placemark><name>La Choza de Óscar</name><styleUrl>#rex</styleUrl><description><![CDATA[Pollería<br/>Precisión: Exacta — OpenStreetMap<br/>Dirección: Jr. Tumbes 812<br/>Teléfono: (051) 351199]]></description><Point><coordinates>-70.0277505,-15.8389104,0</coordinates></Point></Placemark>
<Placemark><name>Pollería Pinos Brass</name><styleUrl>#rex</styleUrl><description><![CDATA[Pollería<br/>Precisión: Exacta — OpenStreetMap<br/>Dirección: Puno]]></description><Point><coordinates>-70.0276098,-15.8373975,0</coordinates></Point></Placemark>
<Placemark><name>Cevichería Puerto Grau</name><styleUrl>#rex</styleUrl><description><![CDATA[Cevichería<br/>Precisión: Exacta — OpenStreetMap<br/>Dirección: Jr. Melgar 175<br/>Teléfono: (051) 620243]]></description><Point><coordinates>-70.0229677,-15.8373310,0</coordinates></Point></Placemark>
<Placemark><name>Bar Cevichería Puerto Eten</name><styleUrl>#rex</styleUrl><description><![CDATA[Cevichería<br/>Precisión: Exacta — OpenStreetMap<br/>Dirección: Jr. Santiago Giraldo 140<br/>Teléfono: 988 101 105]]></description><Point><coordinates>-70.0285981,-15.8374139,0</coordinates></Point></Placemark>
<Placemark><name>Remix Pizzería Resto Café Bar</name><styleUrl>#rex</styleUrl><description><![CDATA[Pizzería<br/>Precisión: Exacta — OpenStreetMap<br/>Dirección: Jr. Pardo 122 (Plaza de Armas)<br/>Teléfono: 958 169 450]]></description><Point><coordinates>-70.0287296,-15.8412574,0</coordinates></Point></Placemark>
<Placemark><name>Del Búho Pizzería</name><styleUrl>#rex</styleUrl><description><![CDATA[Pizzería<br/>Precisión: Exacta — OpenStreetMap<br/>Dirección: Jr. Libertad 240<br/>Teléfono: (051) 356223]]></description><Point><coordinates>-70.0272121,-15.8387574,0</coordinates></Point></Placemark>
<Placemark><name>Machupizza</name><styleUrl>#rex</styleUrl><description><![CDATA[Pizzería<br/>Precisión: Exacta — OpenStreetMap<br/>Dirección: Centro de Puno]]></description><Point><coordinates>-70.0269882,-15.8402225,0</coordinates></Point></Placemark>
<Placemark><name>Incabar</name><styleUrl>#rex</styleUrl><description><![CDATA[Cafetería<br/>Precisión: Exacta — OpenStreetMap<br/>Dirección: Jr. Lima 661<br/>Teléfono: (051) 368031]]></description><Point><coordinates>-70.0275433,-15.8405619,0</coordinates></Point></Placemark>
<Placemark><name>Sushi Ten Bento</name><styleUrl>#rex</styleUrl><description><![CDATA[Japonés / fusión<br/>Precisión: Exacta — OpenStreetMap<br/>Dirección: Jr. Ancash 239<br/>Teléfono: 970 467 603]]></description><Point><coordinates>-70.0284314,-15.8420245,0</coordinates></Point></Placemark>
<Placemark><name>Loving Hut Puno</name><styleUrl>#rex</styleUrl><description><![CDATA[Vegetariano / vegano<br/>Precisión: Exacta — OpenStreetMap<br/>Dirección: Jr. Choque Huanca 188<br/>Teléfono: (051) 353523]]></description><Point><coordinates>-70.0248117,-15.8386982,0</coordinates></Point></Placemark>
<Placemark><name>Mercado Bellavista</name><styleUrl>#rex</styleUrl><description><![CDATA[Puesto de mercado<br/>Precisión: Exacta — OpenStreetMap<br/>Dirección: Barrio Bellavista]]></description><Point><coordinates>-70.0234387,-15.8334622,0</coordinates></Point></Placemark>
<Placemark><name>Restaurante la Villa</name><styleUrl>#rex</styleUrl><description><![CDATA[Restaurante<br/>Precisión: Exacta — OpenStreetMap]]></description><Point><coordinates>-70.0127428,-15.8580313,0</coordinates></Point></Placemark>
<Placemark><name>Sabor Criollo</name><styleUrl>#rex</styleUrl><description><![CDATA[Restaurante<br/>Precisión: Exacta — OpenStreetMap]]></description><Point><coordinates>-70.0273580,-15.8406144,0</coordinates></Point></Placemark>
<Placemark><name>Sunrise</name><styleUrl>#rex</styleUrl><description><![CDATA[Restaurante<br/>Precisión: Exacta — OpenStreetMap]]></description><Point><coordinates>-70.0275309,-15.8381785,0</coordinates></Point></Placemark>
<Placemark><name>Candelas</name><styleUrl>#rex</styleUrl><description><![CDATA[Restaurante<br/>Precisión: Exacta — OpenStreetMap]]></description><Point><coordinates>-70.0276763,-15.8380968,0</coordinates></Point></Placemark>
<Placemark><name>Atajo</name><styleUrl>#rex</styleUrl><description><![CDATA[Restaurante<br/>Precisión: Exacta — OpenStreetMap]]></description><Point><coordinates>-70.0280757,-15.8384111,0</coordinates></Point></Placemark>
<Placemark><name>La Hacienda</name><styleUrl>#rex</styleUrl><description><![CDATA[Restaurante<br/>Precisión: Exacta — OpenStreetMap]]></description><Point><coordinates>-70.0278042,-15.8397422,0</coordinates></Point></Placemark>
<Placemark><name>Buen Sabor</name><styleUrl>#rex</styleUrl><description><![CDATA[Restaurante<br/>Precisión: Exacta — OpenStreetMap]]></description><Point><coordinates>-70.0270275,-15.8381369,0</coordinates></Point></Placemark>
<Placemark><name>Cevicheria Mareas</name><styleUrl>#rex</styleUrl><description><![CDATA[Cevichería<br/>Precisión: Exacta — OpenStreetMap]]></description><Point><coordinates>-70.0276535,-15.8414643,0</coordinates></Point></Placemark>
<Placemark><name>Chifan</name><styleUrl>#rex</styleUrl><description><![CDATA[Chifa<br/>Precisión: Exacta — OpenStreetMap]]></description><Point><coordinates>-70.0257815,-15.8396043,0</coordinates></Point></Placemark>
<Placemark><name>Cevicheria Rico Norte</name><styleUrl>#rex</styleUrl><description><![CDATA[Cevichería<br/>Precisión: Exacta — OpenStreetMap]]></description><Point><coordinates>-70.0210602,-15.8311026,0</coordinates></Point></Placemark>
<Placemark><name>La Cabaña</name><styleUrl>#rex</styleUrl><description><![CDATA[Restaurante<br/>Precisión: Exacta — OpenStreetMap]]></description><Point><coordinates>-70.0260212,-15.8380893,0</coordinates></Point></Placemark>
<Placemark><name>Cafe Restaurant Chullpas</name><styleUrl>#rex</styleUrl><description><![CDATA[Restaurante<br/>Precisión: Exacta — OpenStreetMap]]></description><Point><coordinates>-70.0260752,-15.8382536,0</coordinates></Point></Placemark>
<Placemark><name>Sabores Peruanos</name><styleUrl>#rex</styleUrl><description><![CDATA[Restaurante<br/>Precisión: Exacta — OpenStreetMap]]></description><Point><coordinates>-70.0242160,-15.8452633,0</coordinates></Point></Placemark>
<Placemark><name>Pizza Andina</name><styleUrl>#rex</styleUrl><description><![CDATA[Pizzería<br/>Precisión: Exacta — OpenStreetMap]]></description><Point><coordinates>-70.0277871,-15.8397900,0</coordinates></Point></Placemark>
<Placemark><name>Palitos</name><styleUrl>#rex</styleUrl><description><![CDATA[Restaurante<br/>Precisión: Exacta — OpenStreetMap]]></description><Point><coordinates>-70.0259075,-15.8372194,0</coordinates></Point></Placemark>
<Placemark><name>Karol&#x27;s</name><styleUrl>#rex</styleUrl><description><![CDATA[Restaurante<br/>Precisión: Exacta — OpenStreetMap]]></description><Point><coordinates>-70.0264889,-15.8365757,0</coordinates></Point></Placemark>
<Placemark><name>Viko</name><styleUrl>#rex</styleUrl><description><![CDATA[Restaurante<br/>Precisión: Exacta — OpenStreetMap]]></description><Point><coordinates>-70.0303115,-15.8384561,0</coordinates></Point></Placemark>
<Placemark><name>Snoopy</name><styleUrl>#rex</styleUrl><description><![CDATA[Restaurante<br/>Precisión: Exacta — OpenStreetMap]]></description><Point><coordinates>-70.0261671,-15.8400614,0</coordinates></Point></Placemark>
<Placemark><name>Remembranzas</name><styleUrl>#rex</styleUrl><description><![CDATA[Restaurante<br/>Precisión: Exacta — OpenStreetMap]]></description><Point><coordinates>-70.0268579,-15.8388467,0</coordinates></Point></Placemark>
<Placemark><name>Restaurant El Caribe</name><styleUrl>#rex</styleUrl><description><![CDATA[Restaurante<br/>Precisión: Exacta — OpenStreetMap]]></description><Point><coordinates>-70.0269978,-15.8369373,0</coordinates></Point></Placemark>
<Placemark><name>Huajsapata</name><styleUrl>#rex</styleUrl><description><![CDATA[Restaurante<br/>Precisión: Exacta — OpenStreetMap]]></description><Point><coordinates>-70.0279598,-15.8372516,0</coordinates></Point></Placemark>
<Placemark><name>Ivan&#x27;s</name><styleUrl>#rex</styleUrl><description><![CDATA[Restaurante<br/>Precisión: Exacta — OpenStreetMap]]></description><Point><coordinates>-70.0290607,-15.8375098,0</coordinates></Point></Placemark>
<Placemark><name>Tacos Mexicanos</name><styleUrl>#rex</styleUrl><description><![CDATA[Restaurante<br/>Precisión: Exacta — OpenStreetMap]]></description><Point><coordinates>-70.0285457,-15.8371523,0</coordinates></Point></Placemark>
<Placemark><name>Kollasuyo</name><styleUrl>#rex</styleUrl><description><![CDATA[Restaurante<br/>Precisión: Exacta — OpenStreetMap]]></description><Point><coordinates>-70.0267913,-15.8390023,0</coordinates></Point></Placemark>
<Placemark><name>Aqui me Quedo</name><styleUrl>#rex</styleUrl><description><![CDATA[Restaurante<br/>Precisión: Exacta — OpenStreetMap]]></description><Point><coordinates>-70.0269573,-15.8370387,0</coordinates></Point></Placemark>
<Placemark><name>Virgen del Carmen</name><styleUrl>#rex</styleUrl><description><![CDATA[Restaurante<br/>Precisión: Exacta — OpenStreetMap]]></description><Point><coordinates>-70.0276979,-15.8365898,0</coordinates></Point></Placemark>
<Placemark><name>Exotica</name><styleUrl>#rex</styleUrl><description><![CDATA[Restaurante<br/>Precisión: Exacta — OpenStreetMap]]></description><Point><coordinates>-70.0285504,-15.8369939,0</coordinates></Point></Placemark>
<Placemark><name>La Cayma</name><styleUrl>#rex</styleUrl><description><![CDATA[Restaurante<br/>Precisión: Exacta — OpenStreetMap]]></description><Point><coordinates>-70.0270478,-15.8387202,0</coordinates></Point></Placemark>
<Placemark><name>Pacifico</name><styleUrl>#rex</styleUrl><description><![CDATA[Restaurante<br/>Precisión: Exacta — OpenStreetMap]]></description><Point><coordinates>-70.0156702,-15.8472396,0</coordinates></Point></Placemark>
<Placemark><name>El Almanecer II</name><styleUrl>#rex</styleUrl><description><![CDATA[Restaurante<br/>Precisión: Exacta — OpenStreetMap]]></description><Point><coordinates>-70.0220742,-15.8382013,0</coordinates></Point></Placemark>
<Placemark><name>Apage</name><styleUrl>#rex</styleUrl><description><![CDATA[Restaurante<br/>Precisión: Exacta — OpenStreetMap]]></description><Point><coordinates>-70.0286030,-15.8383334,0</coordinates></Point></Placemark>
<Placemark><name>La Wallatita</name><styleUrl>#rex</styleUrl><description><![CDATA[Restaurante<br/>Precisión: Exacta — OpenStreetMap]]></description><Point><coordinates>-70.0259809,-15.8386423,0</coordinates></Point></Placemark>
<Placemark><name>Chiuchi Polleria</name><styleUrl>#rex</styleUrl><description><![CDATA[Pollería<br/>Precisión: Exacta — OpenStreetMap]]></description><Point><coordinates>-70.0273467,-15.8345808,0</coordinates></Point></Placemark>
<Placemark><name>Adobo Arequipeño</name><styleUrl>#rex</styleUrl><description><![CDATA[Restaurante<br/>Precisión: Exacta — OpenStreetMap]]></description><Point><coordinates>-70.0298345,-15.8406525,0</coordinates></Point></Placemark>
<Placemark><name>Quinta Playa Azul</name><styleUrl>#rex</styleUrl><description><![CDATA[Campestre / recreo<br/>Precisión: Exacta — OpenStreetMap]]></description><Point><coordinates>-70.0017506,-15.8233445,0</coordinates></Point></Placemark>
<Placemark><name>Quni Wasi</name><styleUrl>#rex</styleUrl><description><![CDATA[Restaurante<br/>Precisión: Exacta — OpenStreetMap]]></description><Point><coordinates>-70.0274413,-15.8411597,0</coordinates></Point></Placemark>
<Placemark><name>Pizzeria Quechuas</name><styleUrl>#rex</styleUrl><description><![CDATA[Pizzería<br/>Precisión: Exacta — OpenStreetMap]]></description><Point><coordinates>-70.0289870,-15.8348942,0</coordinates></Point></Placemark>
<Placemark><name>Paque Mas</name><styleUrl>#rex</styleUrl><description><![CDATA[Restaurante<br/>Precisión: Exacta — OpenStreetMap]]></description><Point><coordinates>-70.0288927,-15.8347389,0</coordinates></Point></Placemark>
<Placemark><name>Tamys</name><styleUrl>#rex</styleUrl><description><![CDATA[Restaurante<br/>Precisión: Exacta — OpenStreetMap]]></description><Point><coordinates>-70.0260211,-15.8405665,0</coordinates></Point></Placemark>
<Placemark><name>La Huerta</name><styleUrl>#rex</styleUrl><description><![CDATA[Restaurante<br/>Precisión: Exacta — OpenStreetMap]]></description><Point><coordinates>-70.0255735,-15.8398740,0</coordinates></Point></Placemark>
<Placemark><name>Urban</name><styleUrl>#rex</styleUrl><description><![CDATA[Restaurante<br/>Precisión: Exacta — OpenStreetMap]]></description><Point><coordinates>-70.0275591,-15.8401692,0</coordinates></Point></Placemark>
<Placemark><name>Tommi&#x27;s</name><styleUrl>#rex</styleUrl><description><![CDATA[Restaurante<br/>Precisión: Exacta — OpenStreetMap]]></description><Point><coordinates>-70.0255992,-15.8398046,0</coordinates></Point></Placemark>
<Placemark><name>Big Chicken (1)</name><styleUrl>#rex</styleUrl><description><![CDATA[Pollería<br/>Precisión: Exacta — OpenStreetMap]]></description><Point><coordinates>-70.0258729,-15.8401832,0</coordinates></Point></Placemark>
<Placemark><name>Ukuku&#x27;s Restaurant Pizzeria</name><styleUrl>#rex</styleUrl><description><![CDATA[Pizzería<br/>Precisión: Exacta — OpenStreetMap]]></description><Point><coordinates>-70.0276334,-15.8395670,0</coordinates></Point></Placemark>
<Placemark><name>Wayki&#x27;s</name><styleUrl>#rex</styleUrl><description><![CDATA[Restaurante<br/>Precisión: Exacta — OpenStreetMap]]></description><Point><coordinates>-70.0285034,-15.8411567,0</coordinates></Point></Placemark>
<Placemark><name>Wiñay Titi</name><styleUrl>#rex</styleUrl><description><![CDATA[Restaurante<br/>Precisión: Exacta — OpenStreetMap]]></description><Point><coordinates>-70.0278850,-15.8441189,0</coordinates></Point></Placemark>
<Placemark><name>Pizzería Las Tejitas</name><styleUrl>#rex</styleUrl><description><![CDATA[Pizzería<br/>Precisión: Exacta — OpenStreetMap]]></description><Point><coordinates>-70.0204136,-15.8478970,0</coordinates></Point></Placemark>
<Placemark><name>Polleria Magda&#x27;s</name><styleUrl>#rex</styleUrl><description><![CDATA[Pollería<br/>Precisión: Exacta — OpenStreetMap]]></description><Point><coordinates>-70.0220692,-15.8448499,0</coordinates></Point></Placemark>
<Placemark><name>Natur Center</name><styleUrl>#rex</styleUrl><description><![CDATA[Restaurante<br/>Precisión: Exacta — OpenStreetMap]]></description><Point><coordinates>-70.0225237,-15.8448295,0</coordinates></Point></Placemark>
<Placemark><name>Restaurante Criollo El Chef Linguini</name><styleUrl>#rex</styleUrl><description><![CDATA[Restaurante<br/>Precisión: Exacta — OpenStreetMap]]></description><Point><coordinates>-70.0209026,-15.8456713,0</coordinates></Point></Placemark>
<Placemark><name>La Receta</name><styleUrl>#rex</styleUrl><description><![CDATA[Restaurante<br/>Precisión: Exacta — OpenStreetMap]]></description><Point><coordinates>-70.0275755,-15.8405234,0</coordinates></Point></Placemark>
<Placemark><name>Pushka</name><styleUrl>#rex</styleUrl><description><![CDATA[Restaurante<br/>Precisión: Exacta — OpenStreetMap]]></description><Point><coordinates>-70.0288065,-15.8398102,0</coordinates></Point></Placemark>
<Placemark><name>Delicar</name><styleUrl>#rex</styleUrl><description><![CDATA[Restaurante<br/>Precisión: Exacta — OpenStreetMap]]></description><Point><coordinates>-70.0232650,-15.8364301,0</coordinates></Point></Placemark>
<Placemark><name>Pollos Brass</name><styleUrl>#rex</styleUrl><description><![CDATA[Pollería<br/>Precisión: Exacta — OpenStreetMap]]></description><Point><coordinates>-70.0234719,-15.8345446,0</coordinates></Point></Placemark>
<Placemark><name>Restaurant don Juanito</name><styleUrl>#rex</styleUrl><description><![CDATA[Restaurante<br/>Precisión: Exacta — OpenStreetMap]]></description><Point><coordinates>-70.0234327,-15.8360426,0</coordinates></Point></Placemark>
<Placemark><name>El Vecino</name><styleUrl>#rex</styleUrl><description><![CDATA[Restaurante<br/>Precisión: Exacta — OpenStreetMap]]></description><Point><coordinates>-70.0233963,-15.8365625,0</coordinates></Point></Placemark>
<Placemark><name>Polleria Haytazo</name><styleUrl>#rex</styleUrl><description><![CDATA[Pollería<br/>Precisión: Exacta — OpenStreetMap]]></description><Point><coordinates>-70.0232283,-15.8365607,0</coordinates></Point></Placemark>
<Placemark><name>el tumi pizzeria</name><styleUrl>#rex</styleUrl><description><![CDATA[Pizzería<br/>Precisión: Exacta — OpenStreetMap]]></description><Point><coordinates>-70.0279696,-15.8389530,0</coordinates></Point></Placemark>
<Placemark><name>Copacabana Chicken</name><styleUrl>#rex</styleUrl><description><![CDATA[Pollería<br/>Precisión: Exacta — OpenStreetMap]]></description><Point><coordinates>-70.0249056,-15.8367245,0</coordinates></Point></Placemark>
<Placemark><name>Crepecita 3812</name><styleUrl>#rex</styleUrl><description><![CDATA[Cafetería<br/>Precisión: Exacta — OpenStreetMap]]></description><Point><coordinates>-70.0278671,-15.8370014,0</coordinates></Point></Placemark>
<Placemark><name>Manos pureñas</name><styleUrl>#rex</styleUrl><description><![CDATA[Restaurante<br/>Precisión: Exacta — OpenStreetMap]]></description><Point><coordinates>-70.0267815,-15.8389150,0</coordinates></Point></Placemark>
<Placemark><name>Sumac</name><styleUrl>#rex</styleUrl><description><![CDATA[Restaurante<br/>Precisión: Exacta — OpenStreetMap]]></description><Point><coordinates>-70.0299091,-15.8384605,0</coordinates></Point></Placemark>
<Placemark><name>Gringatos</name><styleUrl>#rex</styleUrl><description><![CDATA[Restaurante<br/>Precisión: Exacta — OpenStreetMap]]></description><Point><coordinates>-70.0294694,-15.8385016,0</coordinates></Point></Placemark>
<Placemark><name>La Cascada</name><styleUrl>#rex</styleUrl><description><![CDATA[Restaurante<br/>Precisión: Exacta — OpenStreetMap]]></description><Point><coordinates>-70.0263583,-15.8386144,0</coordinates></Point></Placemark>
<Placemark><name>Casa del Sabor - Bunker</name><styleUrl>#rex</styleUrl><description><![CDATA[Restaurante<br/>Precisión: Exacta — OpenStreetMap]]></description><Point><coordinates>-70.0210662,-15.8311053,0</coordinates></Point></Placemark>
<Placemark><name>Bianca Pizza</name><styleUrl>#rex</styleUrl><description><![CDATA[Pizzería<br/>Precisión: Exacta — OpenStreetMap]]></description><Point><coordinates>-70.0274721,-15.8401328,0</coordinates></Point></Placemark>
<Placemark><name>kankacho ayavireño</name><styleUrl>#rex</styleUrl><description><![CDATA[Restaurante<br/>Precisión: Exacta — OpenStreetMap]]></description><Point><coordinates>-70.0259898,-15.8386177,0</coordinates></Point></Placemark>
<Placemark><name>Restaurante Campestre Virgencita De Cancharani</name><styleUrl>#rex</styleUrl><description><![CDATA[Campestre / recreo<br/>Precisión: Exacta — OpenStreetMap]]></description><Point><coordinates>-70.0225335,-15.8703419,0</coordinates></Point></Placemark>
<Placemark><name>Restaurant Virgencita de Copacabana</name><styleUrl>#rex</styleUrl><description><![CDATA[Restaurante<br/>Precisión: Exacta — OpenStreetMap]]></description><Point><coordinates>-70.0202555,-15.8231247,0</coordinates></Point></Placemark>
<Placemark><name>El Juzgado Restobar</name><styleUrl>#rex</styleUrl><description><![CDATA[Restaurante<br/>Precisión: Exacta — OpenStreetMap]]></description><Point><coordinates>-70.0276098,-15.8428939,0</coordinates></Point></Placemark>
<Placemark><name>Polleria &amp; Restaurant Kusillos Brass</name><styleUrl>#rex</styleUrl><description><![CDATA[Pollería<br/>Precisión: Exacta — OpenStreetMap]]></description><Point><coordinates>-70.0267245,-15.8464315,0</coordinates></Point></Placemark>
<Placemark><name>Restaurant Magdalena</name><styleUrl>#rex</styleUrl><description><![CDATA[Restaurante<br/>Precisión: Exacta — OpenStreetMap]]></description><Point><coordinates>-70.0275794,-15.8432841,0</coordinates></Point></Placemark>
<Placemark><name>Big Chicken (2)</name><styleUrl>#rex</styleUrl><description><![CDATA[Pollería<br/>Precisión: Exacta — OpenStreetMap]]></description><Point><coordinates>-70.0268615,-15.8405626,0</coordinates></Point></Placemark>
<Placemark><name>Chifa Criollo Yoyad</name><styleUrl>#rex</styleUrl><description><![CDATA[Chifa<br/>Precisión: Exacta — OpenStreetMap]]></description><Point><coordinates>-70.0220476,-15.8462701,0</coordinates></Point></Placemark>
<Placemark><name>Pizzeria Fabio&#x27;s</name><styleUrl>#rex</styleUrl><description><![CDATA[Pizzería<br/>Precisión: Exacta — OpenStreetMap]]></description><Point><coordinates>-70.0273276,-15.8399840,0</coordinates></Point></Placemark>
<Placemark><name>Restaurant Mama Yeya</name><styleUrl>#rex</styleUrl><description><![CDATA[Restaurante<br/>Precisión: Exacta — OpenStreetMap]]></description><Point><coordinates>-70.0285815,-15.8382318,0</coordinates></Point></Placemark>
<Placemark><name>Toscana Café &amp; Restaurant</name><styleUrl>#rex</styleUrl><description><![CDATA[Restaurante<br/>Precisión: Exacta — OpenStreetMap]]></description><Point><coordinates>-70.0265550,-15.8395239,0</coordinates></Point></Placemark>
<Placemark><name>Restaurant Comida Criolla</name><styleUrl>#rex</styleUrl><description><![CDATA[Restaurante<br/>Precisión: Exacta — OpenStreetMap]]></description><Point><coordinates>-70.0275146,-15.8400733,0</coordinates></Point></Placemark>
<Placemark><name>Tipika&#x27;s Pizzas y Drinks</name><styleUrl>#rex</styleUrl><description><![CDATA[Pizzería<br/>Precisión: Exacta — OpenStreetMap]]></description><Point><coordinates>-70.0261259,-15.8385805,0</coordinates></Point></Placemark>
<Placemark><name>El Brindis</name><styleUrl>#rex</styleUrl><description><![CDATA[Restaurante<br/>Precisión: Exacta — OpenStreetMap]]></description><Point><coordinates>-70.0186221,-15.8305833,0</coordinates></Point></Placemark>
<Placemark><name>La Catedral</name><styleUrl>#rex</styleUrl><description><![CDATA[Restaurante<br/>Precisión: Exacta — OpenStreetMap]]></description><Point><coordinates>-70.0276212,-15.8394425,0</coordinates></Point></Placemark>
<Placemark><name>La Karpa</name><styleUrl>#rex</styleUrl><description><![CDATA[Restaurante<br/>Precisión: Exacta — OpenStreetMap]]></description><Point><coordinates>-70.0233894,-15.8361493,0</coordinates></Point></Placemark>
</Folder>
<Folder><name>Restaurantes — ubicación aproximada o probable (14)</name>
<Placemark><name>Giorgio Restaurant</name><styleUrl>#rap</styleUrl><description><![CDATA[Restaurante turístico<br/>Precisión: Aproximada — interpolada en la calle<br/>Dirección: Jr. Lima 430<br/>Teléfono: 950 304 616]]></description><Point><coordinates>-70.0279344,-15.8391474,0</coordinates></Point></Placemark>
<Placemark><name>Restaurante Turístico Los 4 Suyos</name><styleUrl>#rap</styleUrl><description><![CDATA[Restaurante turístico<br/>Precisión: Aproximada — interpolada en la calle<br/>Dirección: Jr. Lima 345]]></description><Point><coordinates>-70.0281437,-15.8384662,0</coordinates></Point></Placemark>
<Placemark><name>Hatun Uchu</name><styleUrl>#rap</styleUrl><description><![CDATA[Restaurante turístico<br/>Precisión: Aproximada — interpolada en la calle<br/>Dirección: Jr. Libertad 216<br/>Teléfono: 974 249 271]]></description><Point><coordinates>-70.0269869,-15.8387404,0</coordinates></Point></Placemark>
<Placemark><name>La Table del&#x27; Inca</name><styleUrl>#rap</styleUrl><description><![CDATA[Restaurante turístico<br/>Precisión: Aproximada — misma cuadra que un local conocido<br/>Dirección: Jr. Ancash 239]]></description><Point><coordinates>-70.0284314,-15.8420245,0</coordinates></Point></Placemark>
<Placemark><name>VALERIA Restaurant</name><styleUrl>#rap</styleUrl><description><![CDATA[Restaurante turístico<br/>Precisión: Aproximada — interpolada en la calle<br/>Dirección: Jr. Lima 369]]></description><Point><coordinates>-70.0281458,-15.8386328,0</coordinates></Point></Placemark>
<Placemark><name>Restaurant Arenas del Lago</name><styleUrl>#rap</styleUrl><description><![CDATA[Restaurante<br/>Precisión: Aproximada — misma cuadra que un local conocido<br/>Dirección: Av. Sesquicentenario 1187<br/>Teléfono: (051) 367154]]></description><Point><coordinates>-70.0015418,-15.8235198,0</coordinates></Point></Placemark>
<Placemark><name>Chifa Cuatro Dragones (sede Jr. Lima)</name><styleUrl>#rap</styleUrl><description><![CDATA[Chifa<br/>Precisión: Aproximada — interpolada en la calle<br/>Dirección: Jr. Lima 371]]></description><Point><coordinates>-70.0281460,-15.8386467,0</coordinates></Point></Placemark>
<Placemark><name>Pollería El Establo</name><styleUrl>#rap</styleUrl><description><![CDATA[Pollería<br/>Precisión: Probable — confirmar<br/>Dirección: Jr. Tacna 398<br/>Teléfono: 951 244 871]]></description><Point><coordinates>-70.0259086,-15.8394164,0</coordinates></Point></Placemark>
<Placemark><name>Kori Pizza</name><styleUrl>#rap</styleUrl><description><![CDATA[Pizzería<br/>Precisión: Aproximada — misma cuadra que un local conocido<br/>Dirección: Jr. Oquendo 178<br/>Teléfono: 942 234 311]]></description><Point><coordinates>-70.0206924,-15.8445074,0</coordinates></Point></Placemark>
<Placemark><name>Pizzería Jhutmay</name><styleUrl>#rap</styleUrl><description><![CDATA[Pizzería<br/>Precisión: Aproximada — interpolada en la calle<br/>Dirección: Jr. Libertad 334<br/>Teléfono: 951 322 905]]></description><Point><coordinates>-70.0277234,-15.8388920,0</coordinates></Point></Placemark>
<Placemark><name>Sr. Pizza</name><styleUrl>#rap</styleUrl><description><![CDATA[Pizzería<br/>Precisión: Probable — confirmar<br/>Dirección: Puno]]></description><Point><coordinates>-70.0150571,-15.8535150,0</coordinates></Point></Placemark>
<Placemark><name>RUPHA Café</name><styleUrl>#rap</styleUrl><description><![CDATA[Cafetería<br/>Precisión: Aproximada — misma cuadra que un local conocido<br/>Dirección: Jr. Moquegua 338<br/>Teléfono: (051) 354179]]></description><Point><coordinates>-70.0263406,-15.8398240,0</coordinates></Point></Placemark>
<Placemark><name>Ricos Pan</name><styleUrl>#rap</styleUrl><description><![CDATA[Panadería / pastelería<br/>Precisión: Aproximada — misma cuadra que un local conocido<br/>Dirección: Jr. Moquegua 326<br/>Teléfono: (051) 354179]]></description><Point><coordinates>-70.0263406,-15.8398240,0</coordinates></Point></Placemark>
<Placemark><name>Páramo Nocturno</name><styleUrl>#rap</styleUrl><description><![CDATA[Restaurante<br/>Precisión: Aproximada — misma cuadra que un local conocido<br/>Dirección: Jr. Arequipa 827<br/>Teléfono: 958 481 210]]></description><Point><coordinates>-70.0266023,-15.8416547,0</coordinates></Point></Placemark>
</Folder>
<Folder><name>Empresas de reparto y taxi (1)</name>
<Placemark><name>LGS Courier</name><styleUrl>#emp</styleUrl><description><![CDATA[Courier / mensajería<br/>Precisión: Aproximada — interpolada en la calle<br/>Dirección: Jr. Lima 419, of. 209<br/>Teléfono: (051) 367243]]></description><Point><coordinates>-70.0280433,-15.8392203,0</coordinates></Point></Placemark>
</Folder>
</Document></kml>